QIANFAN-1               
1 60379U 24140A   25290.84801428  .00000070  00000+0  89273-4 0  9998
2 60379  88.9739 305.0781 0018192  23.0275 337.1688 13.50976419 59808
QIANFAN-2               
1 60380U 24140B   25290.80275082  .00000063  00000+0  78362-4 0  9996
2 60380  88.9725 304.9298 0012516 358.5236   1.5876 13.50968561 59858
QIANFAN-3               
1 60381U 24140C   25290.88510144  .00000075  00000+0  97588-4 0  9990
2 60381  88.9717 305.0581 0014084  10.0047 350.1382 13.50968544 59776
QIANFAN-4               
1 60382U 24140D   25290.86036681  .00000063  00000+0  79218-4 0  9995
2 60382  88.9741 304.9442 0012846   0.8151 359.3018 13.50975476 59897
QIANFAN-5               
1 60383U 24140E   25290.83571561  .00000069  00000+0  88006-4 0  9995
2 60383  88.9716 305.0888 0015756  20.3036 339.8739 13.50971893 59755
QIANFAN-6               
1 60384U 24140F   25290.85632225  .00000068  00000+0  86934-4 0  9990
2 60384  88.9743 304.8178 0013177   6.6243 353.5080 13.50973172 59953
QIANFAN-7               
1 60385U 24140G   25290.81108639  .00000331  00000+0  12844-3 0  9995
2 60385  88.9751 300.3040 0013458 217.7466 142.2786 14.27578667 62412
QIANFAN-8               
1 60386U 24140H   25290.86450358  .00000062  00000+0  76753-4 0  9990
2 60386  88.9746 305.0537 0016685   6.8696 353.2681 13.50971271 59807
